     2.100          NAVIGATION                              RINEX VERSION / TYPE
fic2rin                                 04/08/2017 00:03:39 PGM / RUN BY / DATE
                                                            END OF HEADER
14 17  4  7 16  0  0.0 -.659739598632D-04 -.147792889038D-11  .000000000000D+00
     .710000000000D+02  .610000000000D+02  .476912722472D-08 -.174458767379D+01
     .328943133354D-05  .888453260995D-02  .632740557194D-05  .515363641357D+04
     .489600000000D+06  .126659870148D-06  .648733664281D+00  .856816768646D-07
     .962565647363D+00  .256187500000D+03 -.196018057949D+01 -.811819529828D-08
     .466090843126D-09  .100000000000D+01  .194300000000D+04  .000000000000D+00
     .240000000000D+01  .000000000000D+00 -.931322574615D-08  .710000000000D+02
     .482406000000D+06  .400000000000D+01
15 17  4  7 16  0  0.0 -.347364693880D-03 -.795807864051D-12  .000000000000D+00
     .150000000000D+02  .684062500000D+02  .549558605608D-08 -.226222727844D+01
     .325404107571D-05  .910181668587D-02  .751391053200D-05  .515377153969D+04
     .489600000000D+06  .122934579849D-06  .502040235602D+00 -.175088644028D-06
     .929676636169D+00  .217093750000D+03  .578406911712D+00 -.847999608302D-08
     .572166690182D-09  .100000000000D+01  .194300000000D+04  .000000000000D+00
     .240000000000D+01  .000000000000D+00 -.107102096081D-07  .150000000000D+02
     .482406000000D+06  .400000000000D+01
16 17  4  7 16  0  0.0  .307904556394D-04  .909494701773D-12  .000000000000D+00
     .340000000000D+02  .101875000000D+02  .362300805569D-08 -.447365552240D+00
     .493600964546D-06  .934562145267D-02  .109728425741D-04  .515368014526D+04
     .489600000000D+06  .122934579849D-06  .274341638320D+01  .987201929092D-07
     .990136793343D+00  .183843750000D+03  .426104475179D+00 -.769853496060D-08
    -.218580533328D-09  .100000000000D+01  .194300000000D+04  .000000000000D+00
     .240000000000D+01  .000000000000D+00 -.107102096081D-07  .340000000000D+02
     .482406000000D+06  .400000000000D+01
17 17  4  7 16  0  0.0 -.184919219464D-03  .159161572810D-11  .000000000000D+00
     .780000000000D+02  .635937500000D+02  .424446251319D-08 -.144434203473D+01
     .345148146152D-05  .116383004934D-01  .537373125553D-05  .515360721207D+04
     .489600000000D+06  .199303030968D-06 -.252230666420D+01  .223517417908D-06
     .979612822543D+00  .288156250000D+03 -.185074953512D+01 -.813605318499D-08
     .298226708054D-09  .100000000000D+01  .194300000000D+04  .000000000000D+00
     .240000000000D+01  .000000000000D+00 -.107102096081D-07  .780000000000D+02
     .482406000000D+06  .400000000000D+01
18 17  4  7 16  0  0.0  .609159003943D-03  .216004991671D-11  .000000000000D+00
     .200000000000D+02 -.408750000000D+02  .525879047830D-08  .568134754464D-01
    -.215135514736D-05  .179018341005D-01  .112112611532D-04  .515375480270D+04
     .489600000000D+06 -.294297933578D-06 -.517871899946D+00  .145286321640D-06
     .925746263905D+00  .150656250000D+03 -.181688482925D+01 -.859642950437D-08
     .464305054455D-11  .100000000000D+01  .194300000000D+04  .000000000000D+00
     .240000000000D+01  .000000000000D+00 -.111758708954D-07  .200000000000D+02
     .482406000000D+06  .400000000000D+01
19 17  4  7 16  0  0.0 -.507941469550D-03  .125055521494D-11  .000000000000D+00
     .670000000000D+02  .581250000000D+02  .434089510142D-08  .168892697194D+01
     .279583036900D-05  .102161673130D-01  .573508441448D-05  .515365706062D+04
     .489600000000D+06 -.163912773132D-06 -.247435879708D+01 -.139698386192D-06
     .976818673881D+00  .283625000000D+03  .941722408964D+00 -.820962767823D-08
     .246438836595D-09  .100000000000D+01  .194300000000D+04  .000000000000D+00
     .240000000000D+01  .000000000000D+00 -.153668224812D-07  .670000000000D+02
     .482406000000D+06  .400000000000D+01
20 17  4  7 16  0  0.0  .467324629426D-03  .159161572810D-11  .000000000000D+00
     .190000000000D+02 -.591875000000D+02  .496056377025D-08 -.230404887474D+01
    -.295974314213D-05  .441644794773D-02  .115726143122D-04  .515366572952D+04
     .489600000000D+06  .447034835815D-07 -.569272411727D+00  .391155481339D-07
     .927053234917D+00  .130656250000D+03  .157606172884D+01 -.818641242551D-08
     .271439877989D-10  .100000000000D+01  .194300000000D+04  .000000000000D+00
     .240000000000D+01  .000000000000D+00 -.838190317154D-08  .190000000000D+02
     .482406000000D+06  .400000000000D+01
21 17  4  7 16  0  0.0 -.513572245836D-03  .193267624127D-11  .000000000000D+00
     .280000000000D+02 -.618437500000D+02  .543522639900D-08  .960854248259D+00
    -.351294875145D-05  .240240845596D-01  .452250242233D-05  .515370144463D+04
     .489600000000D+06 -.322237610817D-06 -.155890725740D+01 -.240281224251D-06
     .938860843185D+00  .289781250000D+03 -.168626579960D+01 -.903144762462D-08
    -.317870383435D-09  .100000000000D+01  .194300000000D+04  .000000000000D+00
     .240000000000D+01  .000000000000D+00 -.977888703346D-08  .280000000000D+02
     .482406000000D+06  .400000000000D+01
22 17  4  7 16  0  0.0  .487179495394D-04 -.119371179608D-10  .000000000000D+00
     .690000000000D+02 -.298750000000D+02  .511628454236D-08 -.191218032967D+01
    -.150874257088D-05  .755696347915D-02  .109523534775D-04  .515355098915D+04
     .489600000000D+06  .137835741043D-06 -.517911368013D+00  .707805156708D-07
     .923768119244D+00  .142218750000D+03 -.177183196583D+01 -.821034199370D-08
     .664313385605D-10  .100000000000D+01  .194300000000D+04  .000000000000D+00
     .240000000000D+01  .000000000000D+00 -.176951289177D-07  .690000000000D+02
     .482406000000D+06  .400000000000D+01
23 17  4  7 16  0  0.0 -.209311489016D-03 -.795807864051D-12  .000000000000D+00
     .230000000000D+02  .657500000000D+02  .515771483953D-08 -.269382872389D+01
     .314973294735D-05  .114762347657D-01  .704824924469D-05  .515376870155D+04
     .489600000000D+06  .614672899246D-07  .564677700567D+00 -.212341547012D-06
     .944882287146D+00  .238093750000D+03 -.248332522826D+01 -.827248743945D-08
     .477519890620D-09  .100000000000D+01  .194300000000D+04  .000000000000D+00
     .240000000000D+01  .000000000000D+00 -.200234353542D-07  .230000000000D+02
     .482406000000D+06  .400000000000D+01
24 17  4  7 16  0  0.0 -.330572947860D-04 -.568434188608D-12  .000000000000D+00
     .112000000000D+03 -.341250000000D+02  .529772067133D-08  .293973456201D+01
    -.184215605259D-05  .563128327485D-02  .494346022606D-05  .515369104004D+04
     .489600000000D+06 -.577419996262D-07  .158864280530D+01 -.577419996262D-07
     .945572218330D+00  .275937500000D+03  .485110629296D+00 -.845213777975D-08
    -.378230040514D-09  .100000000000D+01  .194300000000D+04  .000000000000D+00
     .340000000000D+01  .000000000000D+00  .232830643654D-08  .112000000000D+03
     .482406000000D+06  .400000000000D+01
25 17  4  7 16  0  0.0 -.365932472050D-03 -.670752342558D-11  .000000000000D+00
     .109000000000D+03  .400000000000D+01  .391087718945D-08  .983274114434D+00
     .366941094398D-06  .642119161785D-02  .122841447592D-04  .515361660957D+04
     .489600000000D+06 -.651925802231D-07  .266992470245D+01  .707805156708D-07
     .977569607287D+00  .151031250000D+03  .783529800498D+00 -.780211070351D-08
    -.301798285396D-09  .100000000000D+01  .194300000000D+04  .000000000000D+00
     .340000000000D+01  .000000000000D+00  .558793544769D-08  .109000000000D+03
     .482406000000D+06  .400000000000D+01
26 17  4  7 16  0  0.0 -.514911487699D-03  .238742359215D-11  .000000000000D+00
     .980000000000D+02 -.478125000000D+01  .435160983345D-08  .418929556886D+00
    -.264495611191D-06  .181202427484D-02  .110026448965D-04  .515368564606D+04
     .489600000000D+06  .111758708954D-07  .265539273695D+01  .745058059692D-08
     .959354586066D+00  .162687500000D+03  .434482075980D-01 -.795997442203D-08
    -.285011871888D-09  .100000000000D+01  .194300000000D+04  .000000000000D+00
     .240000000000D+01  .000000000000D+00  .698491930962D-08  .980000000000D+02
     .482406000000D+06  .400000000000D+01
27 17  4  7 16  0  0.0  .236870720983D-03  .625277607469D-11  .000000000000D+00
     .102000000000D+03  .606875000000D+02  .418338854064D-08 -.132345305463D+01
     .317580997944D-05  .465105799958D-02  .614672899246D-05  .515366127396D+04
     .489600000000D+06  .391155481339D-07 -.257399137707D+01 -.104308128357D-06
     .974550654929D+00  .269468750000D+03  .305506343668D+00 -.802283418325D-08
     .312513017422D-09  .100000000000D+01  .194300000000D+04  .000000000000D+00
     .240000000000D+01  .000000000000D+00  .186264514923D-08  .102000000000D+03
     .482406000000D+06  .400000000000D+01
28 17  4  7 16  0  0.0  .603090506047D-03  .295585778076D-11  .000000000000D+00
     .430000000000D+02  .233750000000D+02  .374122726570D-08 -.532901194685D+00
     .123120844364D-05  .197688128101D-01  .119600445032D-04  .515365355301D+04
     .489600000000D+06 -.229105353355D-06  .274803703336D+01  .102445483208D-06
     .988917980700D+00  .168656250000D+03 -.157164295552D+01 -.800390482333D-08
    -.102861427448D-09  .100000000000D+01  .194300000000D+04  .000000000000D+00
     .240000000000D+01  .000000000000D+00 -.111758708954D-07  .430000000000D+02
     .482406000000D+06  .400000000000D+01
29 17  4  7 16  0  0.0  .614450778812D-03 -.295585778076D-11  .000000000000D+00
     .270000000000D+02  .668750000000D+02  .423446209663D-08  .615172563652D+00
     .342540442944D-05  .708150793798D-03  .576861202717D-05  .515364649010D+04
     .489600000000D+06 -.558793544769D-08 -.251223529246D+01  .167638063431D-07
     .980700459711D+00  .277875000000D+03  .615123697800D-01 -.808069373619D-08
     .346085844436D-09  .100000000000D+01  .194300000000D+04  .000000000000D+00
     .240000000000D+01  .000000000000D+00 -.102445483208D-07  .270000000000D+02
     .482406000000D+06  .400000000000D+01
